[{"OBJECT_NAME":"SWOT","OBJECT_ID":"2022-173A","EPOCH":"2026-03-09T21:08:58.320384","MEAN_MOTION":14.00169571,"ECCENTRICITY":5.296e-5,"INCLINATION":77.6121,"RA_OF_ASC_NODE":169.3626,"ARG_OF_PERICENTER":257.165,"MEAN_ANOMALY":102.9443,"EPHEMERIS_TYPE":0,"CLASSIFICATION_TYPE":"U","NORAD_CAT_ID":54754,"ELEMENT_SET_NO":999,"REV_AT_EPOCH":16525,"BSTAR":8.9304891e-5,"MEAN_MOTION_DOT":1.29e-6,"MEAN_MOTION_DDOT":0},{"OBJECT_NAME":"OPS 4988 (GREB 6)","OBJECT_ID":"1965-016A","EPOCH":"2026-03-09T22:27:47.001888","MEAN_MOTION":13.96642007,"ECCENTRICITY":0.00220544,"INCLINATION":70.0822,"RA_OF_ASC_NODE":9.7117,"ARG_OF_PERICENTER":207.0187,"MEAN_ANOMALY":223.5621,"EPHEMERIS_TYPE":0,"CLASSIFICATION_TYPE":"U","NORAD_CAT_ID":1271,"ELEMENT_SET_NO":999,"REV_AT_EPOCH":10495,"BSTAR":8.7361492e-5,"MEAN_MOTION_DOT":6.9e-7,"MEAN_MOTION_DDOT":0}]
